OBJECT_NAME,OBJECT_ID,EPOCH,MEAN_MOTION,ECCENTRICITY,INCLINATION,RA_OF_ASC_NODE,ARG_OF_PERICENTER,MEAN_ANOMALY,EPHEMERIS_TYPE,CLASSIFICATION_TYPE,NORAD_CAT_ID,ELEMENT_SET_NO,REV_AT_EPOCH,BSTAR,MEAN_MOTION_DOT,MEAN_MOTION_DDOT
SOYUZ-MS 26,2024-162A,2024-10-05T19:00:24.829920,15.49263048,0.0009172,51.6361,127.546,40.4137,319.7532,0,U,61043,999,47550,0.00056846,0.00031326,0
SPACEMOBILE-003,2024-163A,2024-10-05T21:12:33.799392,15.17233041,0.0013607,52.977,274.3365,33.1715,327.0128,0,U,61045,999,357,0.00037947,7.346e-05,0
SPACEMOBILE-005,2024-163B,2024-10-05T21:07:27.964128,15.17462009,0.0014229,52.9783,274.3232,37.3498,322.8481,0,U,61046,999,356,0.00039465,7.707e-05,0
SPACEMOBILE-001,2024-163C,2024-10-05T21:06:26.629632,15.1750876,0.0014037,52.9747,274.3003,38.012,322.1861,0,U,61047,999,356,0.00039633,7.751e-05,0
SPACEMOBILE-002,2024-163D,2024-10-05T21:00:34.388928,15.17776543,0.0013408,52.9778,274.2834,41.3841,318.8166,0,U,61048,999,356,0.00044299,8.77e-05,0
SPACEMOBILE-004,2024-163E,2024-10-05T20:56:45.868704,15.17958955,0.0013791,52.9776,274.2734,46.1821,314.0309,0,U,61049,999,356,0.0008205,0.00016626,0
STARLINK-11286 [DTC],2024-164A,2024-10-05T22:10:52.474944,15.76738764,0.0001248,53.1573,354.2866,250.6466,109.4419,0,U,61050,999,480,0.00030779,0.00050039,0
STARLINK-11252 [DTC],2024-164B,2024-10-06T04:09:02.152512,15.76632987,0.0001527,53.157,352.99,125.3249,234.7915,0,U,61051,999,475,4.8962e-05,7.332e-05,0
STARLINK-11284 [DTC],2024-164C,2024-10-05T21:56:50.185536,15.76744169,0.0001161,53.1565,354.2205,66.4562,293.6581,0,U,61052,999,377,9.6606e-05,0.00015195,0
STARLINK-11230 [DTC],2024-164D,2024-10-06T05:26:12.145344,15.76828602,6.78e-05,53.1551,352.6103,133.6135,226.4943,0,U,61053,999,486,0.0019032,0.00324454,0
STARLINK-11294 [DTC],2024-164E,2024-10-05T20:11:30.485184,15.76743125,0.0001092,53.1558,354.4721,103.2872,256.8271,0,U,61054,999,376,0.00065569,0.001081,0
STARLINK-11268 [DTC],2024-164F,2024-10-05T20:04:28.269984,15.76735169,0.0002999,53.156,354.4399,40.6315,319.4929,0,U,61055,999,376,0.00071512,0.00118074,0
STARLINK-11156 [DTC],2024-164G,2024-10-05T19:57:26.864352,15.7671493,0.0001918,53.1565,354.4088,52.5115,307.608,0,U,61056,999,376,-4.2872e-06,-1.357e-05,0
STARLINK-11231 [DTC],2024-164H,2024-10-05T22:00:00.999936,15.72799069,0.000116,53.1609,353.9531,55.861,83.2422,0,U,61057,999,474,-0.0089017,-0.01099727,0
STARLINK-11299 [DTC],2024-164J,2024-10-05T22:00:00.999936,15.72799719,9.55e-05,53.159,353.8956,65.4368,101.4033,0,U,61058,999,482,-0.0089168,-0.01101345,0
STARLINK-11154 [DTC],2024-164K,2024-10-05T22:00:00.999936,15.72799065,0.0001003,53.1593,353.8372,64.6365,129.9396,0,U,61059,999,483,-0.0089054,-0.01100075,0
STARLINK-11297 [DTC],2024-164L,2024-10-06T06:00:00.999648,15.72019633,7.88e-05,53.1592,352.129,84.3946,225.8788,0,U,61060,999,470,-0.0089253,-0.01069609,0
STARLINK-11233 [DTC],2024-164M,2024-10-05T22:00:00.999936,15.72796253,8.34e-05,53.1591,353.7234,78.8837,171.1672,0,U,61061,999,483,-0.0088563,-0.01094456,0
STARLINK-11236 [DTC],2024-164N,2024-10-05T22:00:00.999936,15.72795931,8.17e-05,53.1593,353.6657,69.9169,207.8702,0,U,61062,999,465,-0.008845,-0.01093184,0
STARLINK-32350,2024-164P,2024-10-05T22:00:00.999936,15.49317287,0.0001081,53.1592,355.1068,83.2489,203.2228,0,U,61063,999,475,-0.00017444,-0.0001014,0
STARLINK-32378,2024-164Q,2024-10-05T22:00:00.999936,15.49317346,0.0001011,53.1593,355.0988,81.7583,208.5466,0,U,61064,999,474,-0.00017832,-0.00010355,0
STARLINK-32321,2024-164R,2024-10-06T06:00:00.999648,15.48094911,8.73e-05,53.1593,353.51,75.5189,272.2609,0,U,61065,999,484,-0.031397,-0.01513616,0
STARLINK-32381,2024-164S,2024-10-05T22:00:00.999936,15.49322078,9e-05,53.1596,355.0948,115.0098,177.2082,0,U,61066,999,475,-0.00029607,-0.00016886,0
STARLINK-32368,2024-164T,2024-10-05T22:00:00.999936,15.4932275,0.0001156,53.159,355.0908,87.255,206.8752,0,U,61067,999,475,-0.00021283,-0.00012272,0
STARLINK-32385,2024-164U,2024-10-06T06:00:00.999648,15.49423491,8.42e-05,53.1592,353.4846,113.9547,246.1553,0,U,61068,999,484,-0.029937,-0.01512706,0
STARLINK-32380,2024-164V,2024-10-05T22:00:00.999936,15.49322895,9.3e-05,53.1595,355.0829,87.871,210.0903,0,U,61069,999,475,-0.00016471,-9.602e-05,0
STARLINK-32375,2024-164W,2024-10-05T22:00:00.999936,15.49322684,0.0001017,53.1594,355.0869,92.974,203.0737,0,U,61070,999,479,-0.00023522,-0.00013514,0
QAEM 100 R/B,2024-165A,2024-10-05T21:17:47.338944,15.05201794,0.000624,64.0949,269.4238,256.8692,103.1724,0,U,61071,999,325,0.00080186,0.00011333,0
CHAMRAN-1,2024-165B,2024-10-06T04:20:04.242624,15.07915593,0.0015982,64.0893,268.1596,289.7414,70.1976,0,U,61072,999,330,0.0012076,0.00018537,0
2024-166A,2024-166A,2024-10-06T02:32:43.222848,15.80279006,0.0014594,96.7647,175.1661,166.1536,194.0136,0,U,61179,999,297,0.00046118,0.00087552,0
